CTC2_L_00018001-01
1 10000U 22743HZ  26075.70040509  .00000000  00000+0  00000-0 0  9993
2 10000  95.0000   0.0000 0000000   0.0000   0.0000 15.80155680    17
CTC2_L_00018001-02
1 10001U 24211ZW  26075.70040509  .00000000  00000+0  00000-0 0  9996
2 10001  95.0000   0.0000 0000000   0.0000  90.0000 15.80155680    17
CTC2_L_00018001-03
1 10002U 23256HD  26075.70040509  .00000000  00000+0  00000-0 0  9995
2 10002  95.0000   0.0000 0000000   0.0000 180.0000 15.80155680    18
CTC2_L_00018001-04
1 10003U 23416NS  26075.70040509  .00000000  00000+0  00000-0 0  9994
2 10003  95.0000   0.0000 0000000   0.0000 270.0000 15.80155680    19
CTC2_L_00018002-01
1 10004U 26133Z   26075.70040509  .00000000  00000+0  00000-0 0  9994
2 10004  95.0000  12.0000 0000000   0.0000  12.0000 15.80155680    17
CTC2_L_00018002-02
1 10005U 24534CC  26075.70040509  .00000000  00000+0  00000-0 0  9998
2 10005  95.0000  12.0000 0000000   0.0000 102.0000 15.80155680    18
CTC2_L_00018002-03
1 10006U 26151YP  26075.70040509  .00000000  00000+0  00000-0 0  9996
2 10006  95.0000  12.0000 0000000   0.0000 192.0000 15.80155680    18
CTC2_L_00018002-04
1 10007U 23328YZ  26075.70040509  .00000000  00000+0  00000-0 0  9990
2 10007  95.0000  12.0000 0000000   0.0000 282.0000 15.80155680    19
CTC2_L_00018003-01
1 10008U 24780AF  26075.70040509  .00000000  00000+0  00000-0 0  9994
2 10008  95.0000  24.0000 0000000   0.0000  24.0000 15.80155680    17
CTC2_L_00018003-02
1 10009U 25271XA  26075.70040509  .00000000  00000+0  00000-0 0  9991
2 10009  95.0000  24.0000 0000000   0.0000 114.0000 15.80155680    18
CTC2_L_00018003-03
1 10010U 23891VT  26075.70040509  .00000000  00000+0  00000-0 0  9999
2 10010  95.0000  24.0000 0000000   0.0000 204.0000 15.80155680    10
CTC2_L_00018003-04
1 10011U 25089KV  26075.70040509  .00000000  00000+0  00000-0 0  9991
2 10011  95.0000  24.0000 0000000   0.0000 294.0000 15.80155680    10
CTC2_L_00018004-01
1 10012U 23022EE  26075.70040509  .00000000  00000+0  00000-0 0  9997
2 10012  95.0000  36.0000 0000000   0.0000  36.0000 15.80155680    18
CTC2_L_00018004-02
1 10013U 23781WN  26075.70040509  .00000000  00000+0  00000-0 0  9990
2 10013  95.0000  36.0000 0000000   0.0000 126.0000 15.80155680    19
CTC2_L_00018004-03
1 10014U 22928PH  26075.70040509  .00000000  00000+0  00000-0 0  9993
2 10014  95.0000  36.0000 0000000   0.0000 216.0000 15.80155680    10
CTC2_L_00018004-04
1 10015U 25451OW  26075.70040509  .00000000  00000+0  00000-0 0  9998
2 10015  95.0000  36.0000 0000000   0.0000 306.0000 15.80155680    11
CTC2_L_00018005-01
1 10016U 22749W   26075.70040509  .00000000  00000+0  00000-0 0  9996
2 10016  95.0000  48.0000 0000000   0.0000  48.0000 15.80155680    18
CTC2_L_00018005-02
1 10017U 24677BH  26075.70040509  .00000000  00000+0  00000-0 0  9999
2 10017  95.0000  48.0000 0000000   0.0000 138.0000 15.80155680    19
CTC2_L_00018005-03
1 10018U 22643CE  26075.70040509  .00000000  00000+0  00000-0 0  9991
2 10018  95.0000  48.0000 0000000   0.0000 228.0000 15.80155680    10
CTC2_L_00018005-04
1 10019U 23699TD  26075.70040509  .00000000  00000+0  00000-0 0  9994
2 10019  95.0000  48.0000 0000000   0.0000 318.0000 15.80155680    11
CTC2_L_00018006-01
1 10020U 22914GN  26075.70040509  .00000000  00000+0  00000-0 0  9995
2 10020  95.0000  60.0000 0000000   0.0000  60.0000 15.80155680    11
CTC2_L_00018006-02
1 10021U 26577EA  26075.70040509  .00000000  00000+0  00000-0 0  9995
2 10021  95.0000  60.0000 0000000   0.0000 150.0000 15.80155680    12
CTC2_L_00018006-03
1 10022U 24057NT  26075.70040509  .00000000  00000+0  00000-0 0  9997
2 10022  95.0000  60.0000 0000000   0.0000 240.0000 15.80155680    13
CTC2_L_00018006-04
1 10023U 22696MR  26075.70040509  .00000000  00000+0  00000-0 0  9995
2 10023  95.0000  60.0000 0000000   0.0000 330.0000 15.80155680    14
CTC2_L_00018007-01
1 10024U 25967HQ  26075.70040509  .00000000  00000+0  00000-0 0  9990
2 10024  95.0000  72.0000 0000000   0.0000  72.0000 15.80155680    11
CTC2_L_00018007-02
1 10025U 26838VQ  26075.70040509  .00000000  00000+0  00000-0 0  9999
2 10025  95.0000  72.0000 0000000   0.0000 162.0000 15.80155680    12
CTC2_L_00018007-03
1 10026U 26584DO  26075.70040509  .00000000  00000+0  00000-0 0  9998
2 10026  95.0000  72.0000 0000000   0.0000 252.0000 15.80155680    13
CTC2_L_00018007-04
1 10027U 24725DD  26075.70040509  .00000000  00000+0  00000-0 0  9994
2 10027  95.0000  72.0000 0000000   0.0000 342.0000 15.80155680    14
CTC2_L_00018008-01
1 10028U 26592IT  26075.70040509  .00000000  00000+0  00000-0 0  9999
2 10028  95.0000  84.0000 0000000   0.0000  84.0000 15.80155680    11
CTC2_L_00018008-02
1 10029U 24119EC  26075.70040509  .00000000  00000+0  00000-0 0  9993
2 10029  95.0000  84.0000 0000000   0.0000 174.0000 15.80155680    12
CTC2_L_00018008-03
1 10030U 23691Z   26075.70040509  .00000000  00000+0  00000-0 0  9999
2 10030  95.0000  84.0000 0000000   0.0000 264.0000 15.80155680    14
CTC2_L_00018008-04
1 10031U 26310XA  26075.70040509  .00000000  00000+0  00000-0 0  9991
2 10031  95.0000  84.0000 0000000   0.0000 354.0000 15.80155680    15
CTC2_L_00018009-01
1 10032U 26943DZ  26075.70040509  .00000000  00000+0  00000-0 0  9994
2 10032  95.0000  96.0000 0000000   0.0000  96.0000 15.80155680    12
CTC2_L_00018009-02
1 10033U 25520SE  26075.70040509  .00000000  00000+0  00000-0 0  9995
2 10033  95.0000  96.0000 0000000   0.0000 186.0000 15.80155680    13
CTC2_L_00018009-03
1 10034U 22743VR  26075.70040509  .00000000  00000+0  00000-0 0  9990
2 10034  95.0000  96.0000 0000000   0.0000 276.0000 15.80155680    14
CTC2_L_00018009-04
1 10035U 25604UR  26075.70040509  .00000000  00000+0  00000-0 0  9990
2 10035  95.0000  96.0000 0000000   0.0000   6.0000 15.80155680    16
CTC2_L_00018010-01
1 10036U 25303ID  26075.70040509  .00000000  00000+0  00000-0 0  9997
2 10036  95.0000 108.0000 0000000   0.0000 108.0000 15.80155680    14
CTC2_L_00018010-02
1 10037U 25905NP  26075.70040509  .00000000  00000+0  00000-0 0  9996
2 10037  95.0000 108.0000 0000000   0.0000 198.0000 15.80155680    14
CTC2_L_00018010-03
1 10038U 25324SY  26075.70040509  .00000000  00000+0  00000-0 0  9992
2 10038  95.0000 108.0000 0000000   0.0000 288.0000 15.80155680    15
CTC2_L_00018010-04
1 10039U 26863EP  26075.70040509  .00000000  00000+0  00000-0 0  9992
2 10039  95.0000 108.0000 0000000   0.0000  18.0000 15.80155680    17
CTC2_L_00018011-01
1 10040U 26814DY  26075.70040509  .00000000  00000+0  00000-0 0  9990
2 10040  95.0000 120.0000 0000000   0.0000 120.0000 15.80155680    17
CTC2_L_00018011-02
1 10041U 23958ZK  26075.70040509  .00000000  00000+0  00000-0 0  9997
2 10041  95.0000 120.0000 0000000   0.0000 210.0000 15.80155680    18
CTC2_L_00018011-03
1 10042U 23835JA  26075.70040509  .00000000  00000+0  00000-0 0  9992
2 10042  95.0000 120.0000 0000000   0.0000 300.0000 15.80155680    19
CTC2_L_00018011-04
1 10043U 22491KO  26075.70040509  .00000000  00000+0  00000-0 0  9990
2 10043  95.0000 120.0000 0000000   0.0000  30.0000 15.80155680    10
CTC2_L_00018012-01
1 10044U 26569RS  26075.70040509  .00000000  00000+0  00000-0 0  9991
2 10044  95.0000 132.0000 0000000   0.0000 132.0000 15.80155680    17
CTC2_L_00018012-02
1 10045U 23582HB  26075.70040509  .00000000  00000+0  00000-0 0  9994
2 10045  95.0000 132.0000 0000000   0.0000 222.0000 15.80155680    18
CTC2_L_00018012-03
1 10046U 26835CB  26075.70040509  .00000000  00000+0  00000-0 0  9999
2 10046  95.0000 132.0000 0000000   0.0000 312.0000 15.80155680    19
CTC2_L_00018012-04
1 10047U 22995IS  26075.70040509  .00000000  00000+0  00000-0 0  9993
2 10047  95.0000 132.0000 0000000   0.0000  42.0000 15.80155680    10
CTC2_L_00018013-01
1 10048U 26934MN  26075.70040509  .00000000  00000+0  00000-0 0  9991
2 10048  95.0000 144.0000 0000000   0.0000 144.0000 15.80155680    17
CTC2_L_00018013-02
1 10049U 26286JY  26075.70040509  .00000000  00000+0  00000-0 0  9992
2 10049  95.0000 144.0000 0000000   0.0000 234.0000 15.80155680    18
CTC2_L_00018013-03
1 10050U 24143CM  26075.70040509  .00000000  00000+0  00000-0 0  9994
2 10050  95.0000 144.0000 0000000   0.0000 324.0000 15.80155680    10
CTC2_L_00018013-04
1 10051U 22218JP  26075.70040509  .00000000  00000+0  00000-0 0  9996
2 10051  95.0000 144.0000 0000000   0.0000  54.0000 15.80155680    11
CTC2_L_00018014-01
1 10052U 26693CU  26075.70040509  .00000000  00000+0  00000-0 0  9998
2 10052  95.0000 156.0000 0000000   0.0000 156.0000 15.80155680    18
CTC2_L_00018014-02
1 10053U 25806VS  26075.70040509  .00000000  00000+0  00000-0 0  9994
2 10053  95.0000 156.0000 0000000   0.0000 246.0000 15.80155680    19
CTC2_L_00018014-03
1 10054U 22616VI  26075.70040509  .00000000  00000+0  00000-0 0  9991
2 10054  95.0000 156.0000 0000000   0.0000 336.0000 15.80155680    10
CTC2_L_00018014-04
1 10055U 22637BN  26075.70040509  .00000000  00000+0  00000-0 0  9995
2 10055  95.0000 156.0000 0000000   0.0000  66.0000 15.80155680    11
CTC2_L_00018015-01
1 10056U 24734HU  26075.70040509  .00000000  00000+0  00000-0 0  9996
2 10056  95.0000 168.0000 0000000   0.0000 168.0000 15.80155680    18
CTC2_L_00018015-02
1 10057U 26304PR  26075.70040509  .00000000  00000+0  00000-0 0  9992
2 10057  95.0000 168.0000 0000000   0.0000 258.0000 15.80155680    19
CTC2_L_00018015-03
1 10058U 22880OB  26075.70040509  .00000000  00000+0  00000-0 0  9998
2 10058  95.0000 168.0000 0000000   0.0000 348.0000 15.80155680    10
CTC2_L_00018015-04
1 10059U 23265EQ  26075.70040509  .00000000  00000+0  00000-0 0  9997
2 10059  95.0000 168.0000 0000000   0.0000  78.0000 15.80155680    11
CTC2_L_00018016-01
1 10060U 25103I   26075.70040509  .00000000  00000+0  00000-0 0  9992
2 10060  95.0000 180.0000 0000000   0.0000 180.0000 15.80155680    11
CTC2_L_00018016-02
1 10061U 25986KR  26075.70040509  .00000000  00000+0  00000-0 0  9992
2 10061  95.0000 180.0000 0000000   0.0000 270.0000 15.80155680    12
